CCSDS_OMM_VERS = 2.0
CREATION_DATE  = 
ORIGINATOR     = 

OBJECT_NAME    = ATLAS CENTAUR 2
OBJECT_ID      = 1963-047A
CENTER_NAME    = EARTH
REF_FRAME      = TEME
TIME_SYSTEM    = UTC
MEAN_ELEMENT_THEORY = SGP/SGP4

EPOCH          = 2026-01-03T20:30:22.585248
MEAN_MOTION    = 14.11863928
ECCENTRICITY   = .05487051
INCLINATION    = 30.3548
RA_OF_ASC_NODE = 197.9187
ARG_OF_PERICENTER = 229.0102
MEAN_ANOMALY   = 126.1776

EPHEMERIS_TYPE = 0
CLASSIFICATION_TYPE = U
NORAD_CAT_ID   = 694
ELEMENT_SET_NO = 999
REV_AT_EPOCH   = 12245
BSTAR          = .33634274E-3
MEAN_MOTION_DOT = .2864E-4
MEAN_MOTION_DDOT = 0

CCSDS_OMM_VERS = 2.0
CREATION_DATE  = 
ORIGINATOR     = 

OBJECT_NAME    = THOR AGENA D R/B
OBJECT_ID      = 1964-002A
CENTER_NAME    = EARTH
REF_FRAME      = TEME
TIME_SYSTEM    = UTC
MEAN_ELEMENT_THEORY = SGP/SGP4

EPOCH          = 2026-01-03T23:32:34.534464
MEAN_MOTION    = 14.33976018
ECCENTRICITY   = .00338473
INCLINATION    = 99.1215
RA_OF_ASC_NODE = 13.8022
ARG_OF_PERICENTER = 86.9295
MEAN_ANOMALY   = 273.5760

EPHEMERIS_TYPE = 0
CLASSIFICATION_TYPE = U
NORAD_CAT_ID   = 733
ELEMENT_SET_NO = 999
REV_AT_EPOCH   = 22902
BSTAR          = .1812072E-3
MEAN_MOTION_DOT = .46E-5
MEAN_MOTION_DDOT = 0

CCSDS_OMM_VERS = 2.0
CREATION_DATE  = 
ORIGINATOR     = 

OBJECT_NAME    = SL-3 R/B
OBJECT_ID      = 1964-053B
CENTER_NAME    = EARTH
REF_FRAME      = TEME
TIME_SYSTEM    = UTC
MEAN_ELEMENT_THEORY = SGP/SGP4

EPOCH          = 2026-01-03T21:11:47.339520
MEAN_MOTION    = 14.61296764
ECCENTRICITY   = .00757826
INCLINATION    = 65.0763
RA_OF_ASC_NODE = 161.2236
ARG_OF_PERICENTER = 312.9929
MEAN_ANOMALY   = 46.4834

EPHEMERIS_TYPE = 0
CLASSIFICATION_TYPE = U
NORAD_CAT_ID   = 877
ELEMENT_SET_NO = 999
REV_AT_EPOCH   = 25732
BSTAR          = .13161828E-3
MEAN_MOTION_DOT = .553E-5
MEAN_MOTION_DDOT = 0

CCSDS_OMM_VERS = 2.0
CREATION_DATE  = 
ORIGINATOR     = 

OBJECT_NAME    = SL-8 R/B
OBJECT_ID      = 1967-045B
CENTER_NAME    = EARTH
REF_FRAME      = TEME
TIME_SYSTEM    = UTC
MEAN_ELEMENT_THEORY = SGP/SGP4

EPOCH          = 2026-01-03T17:32:48.721344
MEAN_MOTION    = 14.45564021
ECCENTRICITY   = .00632155
INCLINATION    = 74.0118
RA_OF_ASC_NODE = 109.3995
ARG_OF_PERICENTER = 133.1383
MEAN_ANOMALY   = 227.5086

EPHEMERIS_TYPE = 0
CLASSIFICATION_TYPE = U
NORAD_CAT_ID   = 2802
ELEMENT_SET_NO = 999
REV_AT_EPOCH   = 7963
BSTAR          = .19887163E-3
MEAN_MOTION_DOT = .692E-5
MEAN_MOTION_DDOT = 0

CCSDS_OMM_VERS = 2.0
CREATION_DATE  = 
ORIGINATOR     = 

OBJECT_NAME    = SL-8 R/B
OBJECT_ID      = 1968-040B
CENTER_NAME    = EARTH
REF_FRAME      = TEME
TIME_SYSTEM    = UTC
MEAN_ELEMENT_THEORY = SGP/SGP4

EPOCH          = 2026-01-03T17:52:20.210304
MEAN_MOTION    = 15.02717969
ECCENTRICITY   = .00262606
INCLINATION    = 74.0322
RA_OF_ASC_NODE = 86.3442
ARG_OF_PERICENTER = 284.7795
MEAN_ANOMALY   = 75.0484

EPHEMERIS_TYPE = 0
CLASSIFICATION_TYPE = U
NORAD_CAT_ID   = 3230
ELEMENT_SET_NO = 999
REV_AT_EPOCH   = 8025
BSTAR          = .41643849E-3
MEAN_MOTION_DOT = .5565E-4
MEAN_MOTION_DDOT = 0

CCSDS_OMM_VERS = 2.0
CREATION_DATE  = 
ORIGINATOR     = 

OBJECT_NAME    = OAO 2
OBJECT_ID      = 1968-110A
CENTER_NAME    = EARTH
REF_FRAME      = TEME
TIME_SYSTEM    = UTC
MEAN_ELEMENT_THEORY = SGP/SGP4

EPOCH          = 2026-01-04T00:03:57.729600
MEAN_MOTION    = 14.47261314
ECCENTRICITY   = .00050599
INCLINATION    = 34.9932
RA_OF_ASC_NODE = 266.3753
ARG_OF_PERICENTER = 32.9296
MEAN_ANOMALY   = 327.1709

EPHEMERIS_TYPE = 0
CLASSIFICATION_TYPE = U
NORAD_CAT_ID   = 3597
ELEMENT_SET_NO = 999
REV_AT_EPOCH   = 972
BSTAR          = .13478625E-3
MEAN_MOTION_DOT = .481E-5
MEAN_MOTION_DDOT = 0

CCSDS_OMM_VERS = 2.0
CREATION_DATE  = 
ORIGINATOR     = 

OBJECT_NAME    = ISIS 1
OBJECT_ID      = 1969-009A
CENTER_NAME    = EARTH
REF_FRAME      = TEME
TIME_SYSTEM    = UTC
MEAN_ELEMENT_THEORY = SGP/SGP4

EPOCH          = 2026-01-03T22:09:50.296320
MEAN_MOTION    = 11.30370041
ECCENTRICITY   = .17074034
INCLINATION    = 88.4508
RA_OF_ASC_NODE = 162.3706
ARG_OF_PERICENTER = 219.8748
MEAN_ANOMALY   = 126.3832

EPHEMERIS_TYPE = 0
CLASSIFICATION_TYPE = U
NORAD_CAT_ID   = 3669
ELEMENT_SET_NO = 999
REV_AT_EPOCH   = 34121
BSTAR          = .38903218E-3
MEAN_MOTION_DOT = .545E-5
MEAN_MOTION_DDOT = 0

CCSDS_OMM_VERS = 2.0
CREATION_DATE  = 
ORIGINATOR     = 

OBJECT_NAME    = SERT 2
OBJECT_ID      = 1970-009A
CENTER_NAME    = EARTH
REF_FRAME      = TEME
TIME_SYSTEM    = UTC
MEAN_ELEMENT_THEORY = SGP/SGP4

EPOCH          = 2026-01-03T19:45:19.334016
MEAN_MOTION    = 13.58721643
ECCENTRICITY   = .00046859
INCLINATION    = 99.2678
RA_OF_ASC_NODE = 310.4941
ARG_OF_PERICENTER = 340.1456
MEAN_ANOMALY   = 74.4168

EPHEMERIS_TYPE = 0
CLASSIFICATION_TYPE = U
NORAD_CAT_ID   = 4327
ELEMENT_SET_NO = 999
REV_AT_EPOCH   = 77108
BSTAR          = .15411853E-3
MEAN_MOTION_DOT = .71E-6
MEAN_MOTION_DDOT = 0

CCSDS_OMM_VERS = 2.0
CREATION_DATE  = 
ORIGINATOR     = 

OBJECT_NAME    = SL-3 R/B
OBJECT_ID      = 1971-028B
CENTER_NAME    = EARTH
REF_FRAME      = TEME
TIME_SYSTEM    = UTC
MEAN_ELEMENT_THEORY = SGP/SGP4

EPOCH          = 2026-01-03T22:31:21.142560
MEAN_MOTION    = 15.56074876
ECCENTRICITY   = .00185206
INCLINATION    = 81.2389
RA_OF_ASC_NODE = 131.6877
ARG_OF_PERICENTER = 161.0255
MEAN_ANOMALY   = 199.1690

EPHEMERIS_TYPE = 0
CLASSIFICATION_TYPE = U
NORAD_CAT_ID   = 5118
ELEMENT_SET_NO = 999
REV_AT_EPOCH   = 97858
BSTAR          = .65954535E-3
MEAN_MOTION_DOT = .46562E-3
MEAN_MOTION_DDOT = 0

CCSDS_OMM_VERS = 2.0
CREATION_DATE  = 
ORIGINATOR     = 

OBJECT_NAME    = ASTEX 1
OBJECT_ID      = 1971-089A
CENTER_NAME    = EARTH
REF_FRAME      = TEME
TIME_SYSTEM    = UTC
MEAN_ELEMENT_THEORY = SGP/SGP4

EPOCH          = 2026-01-03T21:59:15.521568
MEAN_MOTION    = 14.50676633
ECCENTRICITY   = .0013837
INCLINATION    = 92.7155
RA_OF_ASC_NODE = 130.7963
ARG_OF_PERICENTER = 308.3880
MEAN_ANOMALY   = 51.6082

EPHEMERIS_TYPE = 0
CLASSIFICATION_TYPE = U
NORAD_CAT_ID   = 5560
ELEMENT_SET_NO = 999
REV_AT_EPOCH   = 85291
BSTAR          = .27682154E-3
MEAN_MOTION_DOT = .1087E-4
MEAN_MOTION_DDOT = 0

CCSDS_OMM_VERS = 2.0
CREATION_DATE  = 
ORIGINATOR     = 

OBJECT_NAME    = SL-8 R/B
OBJECT_ID      = 1971-119B
CENTER_NAME    = EARTH
REF_FRAME      = TEME
TIME_SYSTEM    = UTC
MEAN_ELEMENT_THEORY = SGP/SGP4

EPOCH          = 2026-01-03T23:30:15.179040
MEAN_MOTION    = 14.36306687
ECCENTRICITY   = .05573168
INCLINATION    = 73.8902
RA_OF_ASC_NODE = 296.5291
ARG_OF_PERICENTER = 276.3217
MEAN_ANOMALY   = 77.4774

EPHEMERIS_TYPE = 0
CLASSIFICATION_TYPE = U
NORAD_CAT_ID   = 5730
ELEMENT_SET_NO = 999
REV_AT_EPOCH   = 64619
BSTAR          = .66008837E-3
MEAN_MOTION_DOT = .12736E-3
MEAN_MOTION_DDOT = 0

CCSDS_OMM_VERS = 2.0
CREATION_DATE  = 
ORIGINATOR     = 

OBJECT_NAME    = OAO 3 (COPERNICUS)
OBJECT_ID      = 1972-065A
CENTER_NAME    = EARTH
REF_FRAME      = TEME
TIME_SYSTEM    = UTC
MEAN_ELEMENT_THEORY = SGP/SGP4

EPOCH          = 2026-01-03T21:37:10.390944
MEAN_MOTION    = 14.59931978
ECCENTRICITY   = .00067013
INCLINATION    = 35.0069
RA_OF_ASC_NODE = 306.4259
ARG_OF_PERICENTER = 344.3004
MEAN_ANOMALY   = 60.1157

EPHEMERIS_TYPE = 0
CLASSIFICATION_TYPE = U
NORAD_CAT_ID   = 6153
ELEMENT_SET_NO = 999
REV_AT_EPOCH   = 83672
BSTAR          = .16017299E-3
MEAN_MOTION_DOT = .758E-5
MEAN_MOTION_DDOT = 0

