ATLAS CENTAUR 2         
1 00694U 63047A   26003.85442807  .00002864  00000+0  33634-3 0  9999
2 00694  30.3548 197.9187 0548705 229.0102 126.1776 14.11863928122458
THOR AGENA D R/B        
1 00733U 64002A   26003.98095526  .00000460  00000+0  18121-3 0  9995
2 00733  99.1215  13.8022 0033847  86.9295 273.5760 14.33976018229029
SL-3 R/B                
1 00877U 64053B   26003.88318680  .00000553  00000+0  13162-3 0  9991
2 00877  65.0763 161.2236 0075782 312.9929  46.4834 14.61296764257320
SL-8 R/B                
1 02802U 67045B   26003.73111946  .00000692  00000+0  19887-3 0  9999
2 02802  74.0118 109.3995 0063215 133.1383 227.5086 14.45564021 79637
SL-8 R/B                
1 03230U 68040B   26003.74467836  .00005565  00000+0  41644-3 0  9994
2 03230  74.0322  86.3442 0026260 284.7795  75.0484 15.02717969 80253
OAO 2                   
1 03597U 68110A   26004.00275150  .00000481  00000+0  13479-3 0  9991
2 03597  34.9932 266.3753 0005059  32.9296 327.1709 14.47261314  9728
ISIS 1                  
1 03669U 69009A   26003.92349880  .00000545  00000+0  38903-3 0  9991
2 03669  88.4508 162.3706 1707403 219.8748 126.3832 11.30370041341211
SERT 2                  
1 04327U 70009A   26003.82314044  .00000071  00000+0  15412-3 0  9992
2 04327  99.2678 310.4941 0004685 340.1456  74.4168 13.58721643771080
SL-3 R/B                
1 05118U 71028B   26003.93843915  .00046562  00000+0  65955-3 0  9991
2 05118  81.2389 131.6877 0018520 161.0255 199.1690 15.56074876978588
ASTEX 1                 
1 05560U 71089A   26003.91615187  .00001087  00000+0  27682-3 0  9993
2 05560  92.7155 130.7963 0013837 308.3880  51.6082 14.50676633852916
SL-8 R/B                
1 05730U 71119B   26003.97934235  .00012736  00000+0  66009-3 0  9999
2 05730  73.8902 296.5291 0557316 276.3217  77.4774 14.36306687646191
OAO 3 (COPERNICUS)      
1 06153U 72065A   26003.90081471  .00000758  00000+0  16017-3 0  9993
2 06153  35.0069 306.4259 0006701 344.3004  60.1157 14.59931978836723
